CCSDS_OMM_VERS = 2.0
CREATION_DATE  = 
ORIGINATOR     = 

OBJECT_NAME    = STARLINK-36463
OBJECT_ID      = 2026-002L
CENTER_NAME    = EARTH
REF_FRAME      = TEME
TIME_SYSTEM    = UTC
MEAN_ELEMENT_THEORY = SGP/SGP4

EPOCH          = 2026-01-27T22:00:01.999584
MEAN_MOTION    = 15.56103984
ECCENTRICITY   = .0001212
INCLINATION    = 42.9995
RA_OF_ASC_NODE = 197.5176
ARG_OF_PERICENTER = 272.4141
MEAN_ANOMALY   = 330.1224

EPHEMERIS_TYPE = 0
CLASSIFICATION_TYPE = U
NORAD_CAT_ID   = 67315
ELEMENT_SET_NO = 999
REV_AT_EPOCH   = 492
BSTAR          = -.31483819E-1
MEAN_MOTION_DOT = -.201852E-1
MEAN_MOTION_DDOT = 0

CCSDS_OMM_VERS = 2.0
CREATION_DATE  = 
ORIGINATOR     = 

OBJECT_NAME    = STARLINK-36461
OBJECT_ID      = 2026-002M
CENTER_NAME    = EARTH
REF_FRAME      = TEME
TIME_SYSTEM    = UTC
MEAN_ELEMENT_THEORY = SGP/SGP4

EPOCH          = 2026-01-27T22:00:01.999584
MEAN_MOTION    = 15.56098921
ECCENTRICITY   = .00013765
INCLINATION    = 42.9991
RA_OF_ASC_NODE = 197.5128
ARG_OF_PERICENTER = 273.3197
MEAN_ANOMALY   = 331.1344

EPHEMERIS_TYPE = 0
CLASSIFICATION_TYPE = U
NORAD_CAT_ID   = 67316
ELEMENT_SET_NO = 999
REV_AT_EPOCH   = 502
BSTAR          = -.31352761E-1
MEAN_MOTION_DOT = -.2010759E-1
MEAN_MOTION_DDOT = 0

CCSDS_OMM_VERS = 2.0
CREATION_DATE  = 
ORIGINATOR     = 

OBJECT_NAME    = STARLINK-36450
OBJECT_ID      = 2026-002N
CENTER_NAME    = EARTH
REF_FRAME      = TEME
TIME_SYSTEM    = UTC
MEAN_ELEMENT_THEORY = SGP/SGP4

EPOCH          = 2026-01-27T22:00:01.999584
MEAN_MOTION    = 15.56103359
ECCENTRICITY   = .00013341
INCLINATION    = 42.9990
RA_OF_ASC_NODE = 197.5087
ARG_OF_PERICENTER = 275.0237
MEAN_ANOMALY   = 331.3467

EPHEMERIS_TYPE = 0
CLASSIFICATION_TYPE = U
NORAD_CAT_ID   = 67317
ELEMENT_SET_NO = 999
REV_AT_EPOCH   = 502
BSTAR          = -.3145505E-1
MEAN_MOTION_DOT = -.2016903E-1
MEAN_MOTION_DDOT = 0

CCSDS_OMM_VERS = 2.0
CREATION_DATE  = 
ORIGINATOR     = 

OBJECT_NAME    = STARLINK-36498
OBJECT_ID      = 2026-002P
CENTER_NAME    = EARTH
REF_FRAME      = TEME
TIME_SYSTEM    = UTC
MEAN_ELEMENT_THEORY = SGP/SGP4

EPOCH          = 2026-01-27T22:00:01.999584
MEAN_MOTION    = 15.56112782
ECCENTRICITY   = .00015694
INCLINATION    = 42.9994
RA_OF_ASC_NODE = 197.4960
ARG_OF_PERICENTER = 274.6019
MEAN_ANOMALY   = 335.6013

EPHEMERIS_TYPE = 0
CLASSIFICATION_TYPE = U
NORAD_CAT_ID   = 67318
ELEMENT_SET_NO = 999
REV_AT_EPOCH   = 492
BSTAR          = -.3184416E-1
MEAN_MOTION_DOT = -.2039987E-1
MEAN_MOTION_DDOT = 0

CCSDS_OMM_VERS = 2.0
CREATION_DATE  = 
ORIGINATOR     = 

OBJECT_NAME    = STARLINK-36470
OBJECT_ID      = 2026-002Q
CENTER_NAME    = EARTH
REF_FRAME      = TEME
TIME_SYSTEM    = UTC
MEAN_ELEMENT_THEORY = SGP/SGP4

EPOCH          = 2026-01-27T22:00:01.999584
MEAN_MOTION    = 15.56107019
ECCENTRICITY   = .0001387
INCLINATION    = 42.9990
RA_OF_ASC_NODE = 197.5036
ARG_OF_PERICENTER = 268.9241
MEAN_ANOMALY   = 339.3634

EPHEMERIS_TYPE = 0
CLASSIFICATION_TYPE = U
NORAD_CAT_ID   = 67319
ELEMENT_SET_NO = 999
REV_AT_EPOCH   = 492
BSTAR          = -.31590928E-1
MEAN_MOTION_DOT = -.2024975E-1
MEAN_MOTION_DDOT = 0

CCSDS_OMM_VERS = 2.0
CREATION_DATE  = 
ORIGINATOR     = 

OBJECT_NAME    = STARLINK-36500
OBJECT_ID      = 2026-002R
CENTER_NAME    = EARTH
REF_FRAME      = TEME
TIME_SYSTEM    = UTC
MEAN_ELEMENT_THEORY = SGP/SGP4

EPOCH          = 2026-01-27T22:00:01.999584
MEAN_MOTION    = 15.56106596
ECCENTRICITY   = .00012286
INCLINATION    = 42.9994
RA_OF_ASC_NODE = 197.4946
ARG_OF_PERICENTER = 272.5509
MEAN_ANOMALY   = 339.5696

EPHEMERIS_TYPE = 0
CLASSIFICATION_TYPE = U
NORAD_CAT_ID   = 67320
ELEMENT_SET_NO = 999
REV_AT_EPOCH   = 492
BSTAR          = -.3150225E-1
MEAN_MOTION_DOT = -.2019764E-1
MEAN_MOTION_DDOT = 0

CCSDS_OMM_VERS = 2.0
CREATION_DATE  = 
ORIGINATOR     = 

OBJECT_NAME    = STARLINK-36462
OBJECT_ID      = 2026-002S
CENTER_NAME    = EARTH
REF_FRAME      = TEME
TIME_SYSTEM    = UTC
MEAN_ELEMENT_THEORY = SGP/SGP4

EPOCH          = 2026-01-27T22:00:01.999584
MEAN_MOTION    = 15.55955224
ECCENTRICITY   = .00020849
INCLINATION    = 42.9987
RA_OF_ASC_NODE = 197.4844
ARG_OF_PERICENTER = 265.9199
MEAN_ANOMALY   = 350.1681

EPHEMERIS_TYPE = 0
CLASSIFICATION_TYPE = U
NORAD_CAT_ID   = 67321
ELEMENT_SET_NO = 999
REV_AT_EPOCH   = 486
BSTAR          = -.29417251E-1
MEAN_MOTION_DOT = -.1857755E-1
MEAN_MOTION_DDOT = 0

CCSDS_OMM_VERS = 2.0
CREATION_DATE  = 
ORIGINATOR     = 

OBJECT_NAME    = STARLINK-36434
OBJECT_ID      = 2026-002T
CENTER_NAME    = EARTH
REF_FRAME      = TEME
TIME_SYSTEM    = UTC
MEAN_ELEMENT_THEORY = SGP/SGP4

EPOCH          = 2026-01-27T22:00:01.999584
MEAN_MOTION    = 15.56109173
ECCENTRICITY   = .00011828
INCLINATION    = 42.9993
RA_OF_ASC_NODE = 197.4892
ARG_OF_PERICENTER = 267.5134
MEAN_ANOMALY   = 346.5245

EPHEMERIS_TYPE = 0
CLASSIFICATION_TYPE = U
NORAD_CAT_ID   = 67322
ELEMENT_SET_NO = 999
REV_AT_EPOCH   = 486
BSTAR          = -.31620704E-1
MEAN_MOTION_DOT = -.2026702E-1
MEAN_MOTION_DDOT = 0

CCSDS_OMM_VERS = 2.0
CREATION_DATE  = 
ORIGINATOR     = 

OBJECT_NAME    = STARLINK-36497
OBJECT_ID      = 2026-002U
CENTER_NAME    = EARTH
REF_FRAME      = TEME
TIME_SYSTEM    = UTC
MEAN_ELEMENT_THEORY = SGP/SGP4

EPOCH          = 2026-01-27T22:00:01.999584
MEAN_MOTION    = 15.56099451
ECCENTRICITY   = .00013315
INCLINATION    = 42.9990
RA_OF_ASC_NODE = 197.4795
ARG_OF_PERICENTER = 273.0314
MEAN_ANOMALY   = 344.8424

EPHEMERIS_TYPE = 0
CLASSIFICATION_TYPE = U
NORAD_CAT_ID   = 67323
ELEMENT_SET_NO = 999
REV_AT_EPOCH   = 492
BSTAR          = -.31357732E-1
MEAN_MOTION_DOT = -.2011053E-1
MEAN_MOTION_DDOT = 0

CCSDS_OMM_VERS = 2.0
CREATION_DATE  = 
ORIGINATOR     = 

OBJECT_NAME    = STARLINK-36471
OBJECT_ID      = 2026-002V
CENTER_NAME    = EARTH
REF_FRAME      = TEME
TIME_SYSTEM    = UTC
MEAN_ELEMENT_THEORY = SGP/SGP4

EPOCH          = 2026-01-27T22:00:01.999584
MEAN_MOTION    = 15.56113433
ECCENTRICITY   = .00016511
INCLINATION    = 42.9992
RA_OF_ASC_NODE = 197.4685
ARG_OF_PERICENTER = 271.6449
MEAN_ANOMALY   = 350.0594

EPHEMERIS_TYPE = 0
CLASSIFICATION_TYPE = U
NORAD_CAT_ID   = 67324
ELEMENT_SET_NO = 999
REV_AT_EPOCH   = 486
BSTAR          = -.31848724E-1
MEAN_MOTION_DOT = -.2040346E-1
MEAN_MOTION_DDOT = 0

CCSDS_OMM_VERS = 2.0
CREATION_DATE  = 
ORIGINATOR     = 

OBJECT_NAME    = STARLINK-36473
OBJECT_ID      = 2026-002W
CENTER_NAME    = EARTH
REF_FRAME      = TEME
TIME_SYSTEM    = UTC
MEAN_ELEMENT_THEORY = SGP/SGP4

EPOCH          = 2026-01-27T22:00:01.999584
MEAN_MOTION    = 15.56102039
ECCENTRICITY   = .00013506
INCLINATION    = 42.9991
RA_OF_ASC_NODE = 197.4747
ARG_OF_PERICENTER = 268.9145
MEAN_ANOMALY   = 350.8768

EPHEMERIS_TYPE = 0
CLASSIFICATION_TYPE = U
NORAD_CAT_ID   = 67325
ELEMENT_SET_NO = 999
REV_AT_EPOCH   = 502
BSTAR          = -.3146031E-1
MEAN_MOTION_DOT = -.2017125E-1
MEAN_MOTION_DDOT = 0

CCSDS_OMM_VERS = 2.0
CREATION_DATE  = 
ORIGINATOR     = 

OBJECT_NAME    = STARLINK-36430
OBJECT_ID      = 2026-002X
CENTER_NAME    = EARTH
REF_FRAME      = TEME
TIME_SYSTEM    = UTC
MEAN_ELEMENT_THEORY = SGP/SGP4

EPOCH          = 2026-01-27T22:00:01.999584
MEAN_MOTION    = 15.56099289
ECCENTRICITY   = .00014684
INCLINATION    = 42.9990
RA_OF_ASC_NODE = 197.4599
ARG_OF_PERICENTER = 270.6294
MEAN_ANOMALY   = 354.9094

EPHEMERIS_TYPE = 0
CLASSIFICATION_TYPE = U
NORAD_CAT_ID   = 67326
ELEMENT_SET_NO = 999
REV_AT_EPOCH   = 502
BSTAR          = -.31324529E-1
MEAN_MOTION_DOT = -.200922E-1
MEAN_MOTION_DDOT = 0

CCSDS_OMM_VERS = 2.0
CREATION_DATE  = 
ORIGINATOR     = 

OBJECT_NAME    = STARLINK-36501
OBJECT_ID      = 2026-002Y
CENTER_NAME    = EARTH
REF_FRAME      = TEME
TIME_SYSTEM    = UTC
MEAN_ELEMENT_THEORY = SGP/SGP4

EPOCH          = 2026-01-27T22:00:01.999584
MEAN_MOTION    = 15.56115018
ECCENTRICITY   = .00015599
INCLINATION    = 42.9993
RA_OF_ASC_NODE = 197.4635
ARG_OF_PERICENTER = 274.5040
MEAN_ANOMALY   = 349.1195

EPHEMERIS_TYPE = 0
CLASSIFICATION_TYPE = U
NORAD_CAT_ID   = 67327
ELEMENT_SET_NO = 999
REV_AT_EPOCH   = 486
BSTAR          = -.31918486E-1
MEAN_MOTION_DOT = -.2044386E-1
MEAN_MOTION_DDOT = 0

CCSDS_OMM_VERS = 2.0
CREATION_DATE  = 
ORIGINATOR     = 

OBJECT_NAME    = STARLINK-36489
OBJECT_ID      = 2026-002Z
CENTER_NAME    = EARTH
REF_FRAME      = TEME
TIME_SYSTEM    = UTC
MEAN_ELEMENT_THEORY = SGP/SGP4

EPOCH          = 2026-01-27T22:00:01.999584
MEAN_MOTION    = 15.56117213
ECCENTRICITY   = .00015394
INCLINATION    = 42.9991
RA_OF_ASC_NODE = 197.4541
ARG_OF_PERICENTER = 272.8681
MEAN_ANOMALY   = 354.5871

EPHEMERIS_TYPE = 0
CLASSIFICATION_TYPE = U
NORAD_CAT_ID   = 67328
ELEMENT_SET_NO = 999
REV_AT_EPOCH   = 502
BSTAR          = -.31921444E-1
MEAN_MOTION_DOT = -.2044693E-1
MEAN_MOTION_DDOT = 0

CCSDS_OMM_VERS = 2.0
CREATION_DATE  = 
ORIGINATOR     = 

OBJECT_NAME    = STARLINK-36496
OBJECT_ID      = 2026-002AA
CENTER_NAME    = EARTH
REF_FRAME      = TEME
TIME_SYSTEM    = UTC
MEAN_ELEMENT_THEORY = SGP/SGP4

EPOCH          = 2026-01-27T22:00:01.999584
MEAN_MOTION    = 15.56050199
ECCENTRICITY   = .00021462
INCLINATION    = 42.9992
RA_OF_ASC_NODE = 197.4433
ARG_OF_PERICENTER = 268.6895
MEAN_ANOMALY   = 2.6483

EPHEMERIS_TYPE = 0
CLASSIFICATION_TYPE = U
NORAD_CAT_ID   = 67329
ELEMENT_SET_NO = 999
REV_AT_EPOCH   = 484
BSTAR          = -.30838548E-1
MEAN_MOTION_DOT = -.1942809E-1
MEAN_MOTION_DDOT = 0

